AKEBONO (EXOS-D)        
1 19822U 89016A   16223.73360999  .00020582  89002-6  42954-3 0  9995
2 19822  75.0446 283.4158 1969312 279.9021  58.6515 11.55624838873193
HST                     
1 20580U 90037B   16223.86820602  .00000737  00000-0  34909-4 0  9996
2 20580  28.4693 257.6002 0003051  77.6297 265.3343 15.08448836243280
POLAR                   
1 23802U 96013A   16223.58957817 -.00000106  00000-0  00000+0 0  9995
2 23802  78.3007 278.0595 7481072 335.9760   2.6756  1.29842457 98128
SWAS                    
1 25560U 98071A   16223.77044685  .00000474  00000-0  54047-4 0  9997
2 25560  69.9003 321.2187 0010957 289.5879  70.4093 14.93131211959205
ORSTED                  
1 25635U 99008B   16224.12094181  .00000114  00000-0  34506-4 0  9996
2 25635  96.4542 195.8915 0139769 155.5433 205.2482 14.47909061921367
CXO                     
1 25867U 99040B   16225.97433512  .00000654  00000-0  00000+0 0  9994
2 25867  75.6070 296.6028 7021816 259.7625   0.3309  0.37802325 14885
XMM-NEWTON              
1 25989U 99066A   16224.57738350 -.00000484  00000-0  00000+0 0  9992
2 25989  67.8469  20.1697 8222361  95.1402   0.4011  0.50134619 19336
TERRA                   
1 25994U 99068A   16224.29973893  .00000100  00000-0  32334-4 0  9996
2 25994  98.2061 297.8174 0000991  58.3562 301.7732 14.57122598885540
CLUSTER II-FM6 (SALSA)  
1 26410U 00041A   16225.77165970 -.00000153  00000-0  00000+0 0  9995
2 26410 131.3133 329.8985 4923091 144.2070 359.4328  0.44224114 16137
CLUSTER II-FM7 (SAMBA)  
1 26411U 00041B   16225.84092297 -.00000303  00000-0  00000+0 0  9992
2 26411 130.3387 331.5220 5461189 151.1594 359.3726  0.44248502 16211
CLUSTER II-FM5 (RUMBA)  
1 26463U 00045A   16225.83178642 -.00000233  00000-0  00000+0 0  9993
2 26463 133.8274 329.4278 5158721 148.9015 359.3775  0.44242942 16718
CLUSTER II-FM8 (TANGO)  
1 26464U 00045B   16225.77034033 -.00000153  00000-0  00000+0 0  9993
2 26464 131.3092 329.8993 4923293 144.2121 359.4325  0.44223830 52052
ODIN                    
1 26702U 01007A   16223.93912103  .00000901  00000-0  64818-4 0  9998
2 26702  97.6253 238.2313 0012128  37.5346 322.6725 15.06696796844328
TIMED                   
1 26998U 01055B   16223.49840453  .00000227  00000-0  28935-4 0  9998
2 26998  74.0701 213.2861 0002370 289.5542  70.5382 14.87752850795277
RHESSI                  
1 27370U 02004A   16224.16445805  .00004338  00000-0  16713-3 0  9992
2 27370  38.0371 135.9892 0010719  46.5112 313.6546 15.26519055798840
INTEGRAL                
1 27540U 02048A   16226.42241406  .00000864  00000-0  00000-0 0  9990
2 27540  51.2451 202.9686 8098931 259.7592   0.5197  0.37591186  2451
CORIOLIS                
1 27640U 03001A   16223.96542531  .00000002  00000-0  22031-4 0  9996
2 27640  98.7481 232.3352 0015141 116.6071 298.7304 14.18911227703977
SORCE                   
1 27651U 03004A   16223.54187400  .00000224  00000-0  37874-4 0  9992
2 27651  39.9948 252.5586 0022964 215.2554 144.6716 14.88412095734459
MOST                    
1 27843U 03031D   16223.91797281 -.00000001  00000-0  19942-4 0  9990
2 27843  98.7151 230.4734 0009815 181.6049 178.5098 14.20531013679901
SCISAT 1                
1 27858U 03036A   16223.70449338  .00000121  00000-0  22164-4 0  9997
2 27858  73.9325  80.8138 0009157 255.6293 104.3865 14.77054857699934
SWIFT                   
1 28485U 04047A   16223.95795695  .00001354  00000-0  65223-4 0  9996
2 28485  20.5564 142.7997 0011353 280.4978  79.4176 15.03246805641437
FORMOSAT-3 FM6          
1 29047U 06011A   16224.11961448  .00000019  00000-0  24000-4 0  9999
2 29047  71.9795  99.8309 0051408 325.7702  34.0123 14.28524128540485
FORMOSAT-3 FM1          
1 29048U 06011B   16224.36986775  .00000014  00000-0  22069-4 0  9995
2 29048  71.9686  11.8020 0045652 281.4546 102.2637 14.28461534543018
FORMOSAT-3 FM5          
1 29049U 06011C   16224.22011661  .00000134  00000-0  69672-4 0  9998
2 29049  72.0199 175.8128 0036396 319.0909  40.7496 14.28492177538768
FORMOSAT-3 FM3          
1 29050U 06011D   16223.91955147  .00000174  00000-0  47452-4 0  9997
2 29050  72.0162 105.6100 0050345 358.4070   1.6913 14.58340846551232
FORMOSAT-3 FM4          
1 29051U 06011E   16223.75623673  .00000107  00000-0  57510-4 0  9998
2 29051  72.0055  81.3780 0068849 198.2796 161.5866 14.28513104541284
FORMOSAT-3 FM2          
1 29052U 06011F   16223.91939769  .00000105  00000-0  57832-4 0  9998
2 29052  72.0351 151.0872 0042029 284.4764  75.1712 14.28602270538803
CLOUDSAT                
1 29107U 06016A   16223.90879295  .00000146  00000-0  42346-4 0  9999
2 29107  98.2010 166.2843 0000743  47.1123 313.0138 14.57110060547081
CALIPSO                 
1 29108U 06016B   16223.90758102  .00000199  00000-0  54203-4 0  9996
2 29108  98.2012 165.8454 0001429  77.8914 282.2445 14.57108958547156
HINODE (SOLAR-B)        
1 29479U 06041A   16223.63499787  .00000148  00000-0  36880-4 0  9991
2 29479  98.1597 224.5080 0018496 112.8669 247.4489 14.64724410527931
SJ-6C                   
1 29505U 06046A   16224.30603457  .00000557  00000-0  57319-4 0  9996
2 29505  97.8090 221.6844 0004562  53.9018 306.2598 14.94201072533594
SJ-6D                   
1 29506U 06046B   16224.32302387 -.00000304  00000-0 -23692-4 0  9996
2 29506  97.8263 220.8044 0003547  98.4819 261.6819 14.93150240533314
AGILE                   
1 31135U 07013A   16223.04757516  .00003350  00000-0  78507-4 0  9995
2 31135   2.4685   9.5449 0013416 202.6007 157.3455 15.28385151516004
AIM                     
1 31304U 07015A   16224.37591444  .00001263  00000-0  79383-4 0  9992
2 31304  97.9755  23.3793 0006802 107.6201 252.5771 15.11209408508132
FGRST (GLAST)           
1 33053U 08029A   16223.57509870  .00000779  00000-0  28541-4 0  9995
2 33053  25.5833 317.2035 0012206 290.8425  69.0803 15.10656885450295
IBEX                    
1 33401U 08051A   16220.74780208 -.00001786  00000-0  00000+0 0  9994
2 33401  45.8195  20.7640 5032288 175.3204 358.6172  0.10986422  3292
WISE                    
1 36119U 09071A   16223.66675220  .00001751  00000-0  68135-4 0  9996
2 36119  97.4790 245.0005 0002454  11.0606 349.0686 15.27367420368845
SDO                     
1 36395U 10005A   16223.00986617 -.00000073  00000-0  00000-0 0  9994
2 36395  28.4477 146.0539 0000844 146.7440 287.3722  1.00269271 23981
CRYOSAT 2               
1 36508U 10013A   16223.93773132  .00000053  00000-0  12298-4 0  9990
2 36508  92.0286 127.4381 0006410 334.7697  25.3197 14.52174500336151
SPEKTR-R                
1 37755U 11037A   16229.11218179 -.00010958  00000-0  00000+0 0  9992
2 37755  53.6462 335.3331 9025098 311.2668   3.0155  0.10987628  2171
GCOM-W1 (SHIZUKU)       
1 38337U 12025A   16223.91338560  .00000090  00000-0  29929-4 0  9997
2 38337  98.2017 162.5294 0001506  59.0950 344.9293 14.57167239225189
NUSTAR                  
1 38358U 12031A   16223.38231477  .00001238  00000-0  57658-4 0  9992
2 38358   6.0280  44.5489 0011479 141.2872 218.8080 14.87455030226088
RBSP A                  
1 38752U 12046A   16223.25375011  .00000010  00000-0  57217-3 0  9992
2 38752  10.1623 336.2145 6813922 214.8289  71.5847  2.68112722 38531
RBSP B                  
1 38753U 12046B   16224.39698356 -.00000016  00000-0  57562-3 0  9999
2 38753  10.1480 342.9648 6832312 201.8201 103.2354  2.65134227 38345
NEOSSAT                 
1 39089U 13009D   16224.17008702  .00000012  00000-0  19937-4 0  9998
2 39089  98.5785  64.3675 0011844 132.4349 227.7839 14.34350292180952
BRITE-AUSTRIA           
1 39091U 13009F   16224.10443817  .00000026  00000-0  24621-4 0  9995
2 39091  98.5760  65.4764 0011182 142.2454 217.9517 14.34986623181026
UNIBRITE                
1 39092U 13009G   16223.79755364 -.00000001  00000-0  15140-4 0  9993
2 39092  98.5765  64.9020 0010174 136.0941 224.1054 14.34860272180951
IRIS                    
1 39197U 13033A   16223.62192996  .00000211  00000-0  36015-4 0  9990
2 39197  97.9185  44.1330 0029359  99.5815 260.8716 14.78243334168206
HISAKI (SPRINT-A)       
1 39253U 13049A   16223.89393783  .00000021  00000-0 -56242-4 0  9990
2 39253  29.7187 141.0506 0136686  25.1837 335.5326 13.55156580144129
CASSIOPE                
1 39265U 13055A   16223.84078214  .00006308  00000-0  18593-3 0  9993
2 39265  80.9737 335.4941 0700145  69.4257 298.0574 14.20104000147414
DANDE                   
1 39267U 13055C   16224.21865784  .00005458  00000-0  16283-3 0  9992
2 39267  81.0156 342.1568 0723154  80.1832 288.0158 14.14950384147163
STSAT-3                 
1 39422U 13066G   16224.35969147  .00000487  00000-0  57061-4 0  9997
2 39422  97.6998 290.0096 0023011 176.7293 183.4099 14.89232518147816
BRITE-PL                
1 39431U 13066R   16224.07687299  .00000185  00000-0  49968-4 0  9993
2 39431  97.6798 223.9298 0202829 356.4231   3.5501 14.46742560143618
SWARM B                 
1 39451U 13067A   16224.18126924  .00000788  00000-0  34316-4 0  9991
2 39451  87.7558 340.5844 0003421 107.4838 252.6781 15.20661257150735
SWARM A                 
1 39452U 13067B   16224.21999641  .00002020  00000-0  47918-4 0  9993
2 39452  87.3476 283.3013 0003700  95.9774 264.1903 15.41027742152388
SWARM C                 
1 39453U 13067C   16224.21995356  .00001990  00000-0  47184-4 0  9993
2 39453  87.3479 284.7144 0003736  95.5185 264.6497 15.41026611152346
BRITE-TORONTO           
1 40020U 14033L   16224.23538901  .00000094  00000-0  24879-4 0  9990
2 40020  97.8795 102.1091 0086558 231.9071 127.4306 14.66286227114667
OCO 2                   
1 40059U 14035A   16223.83278583  .00000078  00000-0  27443-4 0  9998
2 40059  98.2016 163.6399 0001048 107.4244 252.7069 14.57113572112188
BRITE-PL 2              
1 40119U 14049B   16223.86197706  .00000246  00000-0  36064-4 0  9996
2 40119  97.9581 305.0732 0018193  26.0090 334.2034 14.83961697107040
RESURS P2               
1 40360U 14087A   16224.32882257  .00001853  00000-0  62109-4 0  9994
2 40360  97.2849 317.2683 0008546 143.9209 301.9553 15.32155107 90943
MMS 1                   
1 40482U 15011A   16223.55651269 -.00000270  00000-0  00000+0 0  9998
2 40482  28.7160 332.8079 8146602 114.1112 357.8049  1.00493830  5193
MMS 2                   
1 40483U 15011B   16223.53164411 -.00000270  00000-0  00000+0 0  9995
2 40483  28.7158 332.8020 8153084 114.1134 348.8275  1.00493946  5192
MMS 3                   
1 40484U 15011C   16223.56165917 -.00000269  00000-0  00000+0 0  9999
2 40484  28.7020 332.8021 8148926 114.0781 359.7760  1.00493794  5199
MMS 4                   
1 40485U 15011D   16223.54654751 -.00000270  00000-0  00000+0 0  9999
2 40485  28.7355 332.8068 8149151 114.0767 354.2953  1.00493798  5184
ASTROSAT                
1 40930U 15052A   16223.58919197  .00000793  00000-0  22701-4 0  9997
2 40930   5.9978 288.3548 0007951 170.3469 189.6833 14.76011959 46984
DAMPE                   
1 41173U 15078A   16224.31392426  .00000165  00000-0  98251-5 0  9994
2 41173  97.2942 235.0969 0014085 161.1289 255.0480 15.23404578 36283
